OBJECT_NAME,OBJECT_ID,EPOCH,MEAN_MOTION,ECCENTRICITY,INCLINATION,RA_OF_ASC_NODE,ARG_OF_PERICENTER,MEAN_ANOMALY,EPHEMERIS_TYPE,CLASSIFICATION_TYPE,NORAD_CAT_ID,ELEMENT_SET_NO,REV_AT_EPOCH,BSTAR,MEAN_MOTION_DOT,MEAN_MOTION_DDOT
SL-12 R/B(2),1985-042D,2026-06-07T17:54:33.935040,14.22004297,.0035792,71.1085,257.4621,342.1499,131.3734,0,U,15772,999,12719,.6268E-4,.92E-6,0
SL-14 R/B,1985-069B,2026-06-07T17:53:16.484352,14.86508470,.00173,82.5265,300.2463,252.7113,107.2211,0,U,15945,999,18621,.55883E-4,.52E-5,0
SL-16 R/B,1985-097B,2026-06-07T17:48:04.679712,14.16612463,.0005648,71.0038,310.9636,130.3345,325.2662,0,U,16182,999,9998,.17493E-4,-.13E-6,0
SL-14 R/B,1986-006B,2026-06-07T18:21:41.188320,14.86936536,.0075676,82.5261,174.9801,335.1549,24.6031,0,U,16496,999,16259,.68005E-4,.666E-5,0
COSMOS 1743,1986-034A,2026-06-07T18:09:39.534912,15.66098103,.0003531,82.5284,338.7535,316.5986,43.4995,0,U,16719,999,19431,.46824E-3,.48178E-3,0
SL-14 R/B,1986-046B,2026-06-07T18:59:06.027936,14.85665096,.002166,82.4817,355.0552,291.6943,68.1967,0,U,16792,999,13978,.46991E-4,.433E-5,0
SL-14 R/B,1986-055B,2026-06-07T18:50:30.168096,14.85716927,.0019838,82.5211,41.9727,37.8396,30.9950,0,U,16882,999,13274,.49533E-4,.456E-5,0
AJISAI (EGS),1986-061A,2026-06-07T19:35:01.885920,12.44516754,.0011271,50.0070,176.2121,156.8281,255.2162,0,U,16908,999,47922,.1734E-4,-.95E-6,0
SL-14 R/B,1987-024B,2026-06-07T20:37:03.004320,14.86207286,.001735,82.5284,8.0194,326.3168,33.6944,0,U,17567,999,10152,.4531E-4,.423E-5,0
COSMOS 1833,1987-027A,2026-06-07T16:38:15.773568,14.13042870,.0022578,70.9155,136.8245,70.9001,289.4562,0,U,17589,999,2303,.19087E-3,.309E-5,0
SL-16 R/B,1987-027B,2026-06-07T13:06:22.667616,14.17171493,.0006034,71.0031,87.1445,324.0552,36.0165,0,U,17590,999,2807,.12575E-3,.206E-5,0
SL-14 R/B,1987-038B,2026-06-07T15:08:29.620896,14.85439992,.0018116,82.5015,212.0733,224.0352,135.9422,0,U,17912,999,9258,.45427E-4,.416E-5,0
COSMOS 1844,1987-041A,2026-06-07T13:27:29.117952,14.14570017,.0033261,70.8985,204.6124,249.4672,110.2879,0,U,17973,999,1629,-.32734E-4,-.112E-5,0
SL-14 R/B,1987-055B,2026-06-07T17:26:37.654944,14.85704743,.0022114,82.4997,264.1467,77.0385,283.3299,0,U,18153,999,8330,.56338E-4,.515E-5,0
COSMOS 1867,1987-060A,2026-06-07T18:31:28.620192,14.31514808,.0016318,65.0116,54.4270,282.0344,77.8912,0,U,18187,999,3283,.26569E-4,-.29E-6,0
SL-14 R/B,1988-001B,2026-06-07T14:14:35.413152,14.85602851,.0016693,82.5124,110.7988,304.1811,55.7822,0,U,18749,999,5537,.5832E-4,.529E-5,0
COSMOS 1933,1988-020A,2026-06-07T17:56:01.876416,15.18655510,.000258,82.5122,161.7834,225.8037,134.2985,0,U,18958,999,6389,.21944E-3,.4575E-4,0
SL-3 R/B,1988-032B,2026-06-07T18:26:31.190784,15.20769957,.0023656,97.5254,141.8194,280.4323,79.4246,0,U,19046,999,6579,.22491E-3,.4918E-4,0
SL-16 R/B,1988-039B,2026-06-07T16:17:39.632352,14.19628970,.0022758,71.0148,238.2632,207.1696,152.8240,0,U,19120,999,97115,.88504E-4,.139E-5,0
COSMOS 1953,1988-050A,2026-06-07T20:41:16.596096,15.29847324,.0011326,82.5076,67.4365,155.4063,204.7720,0,U,19210,999,5156,.2599E-3,.7557E-4,0
SL-8 R/B,1988-053B,2026-06-07T18:24:47.428704,14.38964252,.0019238,74.0478,306.4218,105.1338,358.0105,0,U,19257,999,98955,.10192E-3,.289E-5,0
COSMOS 1975,1988-093A,2026-06-07T15:59:50.403840,15.29204352,.0010516,82.5199,27.2782,205.1565,154.9164,0,U,19573,999,3315,.26127E-3,.7446E-4,0
SL-14 R/B,1988-093B,2026-06-07T16:47:43.577088,14.85734846,.0022171,82.5305,317.5526,99.7046,270.9830,0,U,19574,999,1438,.5953E-4,.544E-5,0
SL-16 R/B,1988-102B,2026-06-07T18:03:05.798016,14.16166744,.0016113,71.0005,321.9920,238.4014,121.5537,0,U,19650,999,93964,.36349E-5,-.41E-6,0
INTERCOSMOS 24,1989-080A,2026-06-07T17:22:25.513824,12.59647284,.1188336,82.6074,45.8017,83.8441,289.6429,0,U,20261,999,67813,.29229E-3,.1024E-4,0
SL-14 R/B,1989-080C,2026-06-07T15:25:33.887712,12.50564544,.1229291,82.5918,115.4389,339.2403,16.2595,0,U,20262,999,67139,.15216E-3,.509E-5,0
DELTA 1 R/B,1989-089B,2026-06-07T18:28:43.954752,14.50725423,.0068419,97.0641,351.8350,196.7366,163.1574,0,U,20323,999,90879,.10931E-3,.407E-5,0
ARIANE 40 R/B,1990-005H,2026-06-07T17:35:52.461312,14.39922799,.0008882,98.2963,216.6428,297.0577,62.9705,0,U,20443,999,90576,.1101E-3,.304E-5,0
DELTA 2 R/B(1),1990-008B,2026-06-06T02:41:03.363072,15.67094261,.0068397,35.5996,309.6616,9.6562,350.5477,0,U,20453,999,93996,.79153E-3,.10086E-2,0
COSMOS 2058,1990-010A,2026-06-07T11:21:21.404160,15.11949071,.001035,82.4665,318.9363,33.4068,326.7814,0,U,20465,999,95580,.21593E-3,.3734E-4,0
SL-14 R/B,1990-010B,2026-06-07T19:02:18.792384,14.83640514,.0019927,82.5017,182.7671,7.6293,352.5221,0,U,20466,999,94184,.44536E-4,.392E-5,0
