SL-12 R/B(2)            
1 15772U 85042D   26158.74622610  .00000092  00000+0  62680-4 0  9997
2 15772  71.1085 257.4621 0035792 342.1499 131.3734 14.22004297127194
SL-14 R/B               
1 15945U 85069B   26158.74532968  .00000520  00000+0  55883-4 0  9997
2 15945  82.5265 300.2463 0017300 252.7113 107.2211 14.86508470186219
SL-16 R/B               
1 16182U 85097B   26158.74172083 -.00000013  00000+0  17493-4 0  9993
2 16182  71.0038 310.9636 0005648 130.3345 325.2662 14.16612463 99984
SL-14 R/B               
1 16496U 86006B   26158.76506005  .00000666  00000+0  68005-4 0  9997
2 16496  82.5261 174.9801 0075676 335.1549  24.6031 14.86936536162593
COSMOS 1743             
1 16719U 86034A   26158.75670758  .00048178  00000+0  46824-3 0  9996
2 16719  82.5284 338.7535 0003531 316.5986  43.4995 15.66098103194310
SL-14 R/B               
1 16792U 86046B   26158.79104199  .00000433  00000+0  46991-4 0  9993
2 16792  82.4817 355.0552 0021660 291.6943  68.1967 14.85665096139786
SL-14 R/B               
1 16882U 86055B   26158.78507139  .00000456  00000+0  49533-4 0  9993
2 16882  82.5211  41.9727 0019838  37.8396  30.9950 14.85716927132744
AJISAI (EGS)            
1 16908U 86061A   26158.81599405 -.00000095  00000+0  17340-4 0  9991
2 16908  50.0070 176.2121 0011271 156.8281 255.2162 12.44516754479227
SL-14 R/B               
1 17567U 87024B   26158.85906255  .00000423  00000+0  45310-4 0  9994
2 17567  82.5284   8.0194 0017350 326.3168  33.6944 14.86207286101526
COSMOS 1833             
1 17589U 87027A   26158.69323812  .00000309  00000+0  19087-3 0  9999
2 17589  70.9155 136.8245 0022578  70.9001 289.4562 14.13042870 23033
SL-16 R/B               
1 17590U 87027B   26158.54609569  .00000206  00000+0  12575-3 0  9992
2 17590  71.0031  87.1445 0006034 324.0552  36.0165 14.17171493 28075
SL-14 R/B               
1 17912U 87038B   26158.63089839  .00000416  00000+0  45427-4 0  9990
2 17912  82.5015 212.0733 0018116 224.0352 135.9422 14.85439992 92580
COSMOS 1844             
1 17973U 87041A   26158.56075368 -.00000112  00000+0 -32734-4 0  9997
2 17973  70.8985 204.6124 0033261 249.4672 110.2879 14.14570017 16290
SL-14 R/B               
1 18153U 87055B   26158.72682471  .00000515  00000+0  56338-4 0  9991
2 18153  82.4997 264.1467 0022114  77.0385 283.3299 14.85704743 83302
COSMOS 1867             
1 18187U 87060A   26158.77185903 -.00000029  00000+0  26569-4 0  9991
2 18187  65.0116  54.4270 0016318 282.0344  77.8912 14.31514808 32835
SL-14 R/B               
1 18749U 88001B   26158.59346543  .00000529  00000+0  58320-4 0  9994
2 18749  82.5124 110.7988 0016693 304.1811  55.7822 14.85602851 55379
COSMOS 1933             
1 18958U 88020A   26158.74724394  .00004575  00000+0  21944-3 0  9994
2 18958  82.5122 161.7834 0002580 225.8037 134.2985 15.18655510 63890
SL-3 R/B                
1 19046U 88032B   26158.76841656  .00004918  00000+0  22491-3 0  9998
2 19046  97.5254 141.8194 0023656 280.4323  79.4246 15.20769957 65796
SL-16 R/B               
1 19120U 88039B   26158.67893093  .00000139  00000+0  88504-4 0  9999
2 19120  71.0148 238.2632 0022758 207.1696 152.8240 14.19628970971159
COSMOS 1953             
1 19210U 88050A   26158.86199764  .00007557  00000+0  25990-3 0  9997
2 19210  82.5076  67.4365 0011326 155.4063 204.7720 15.29847324 51565
SL-8 R/B                
1 19257U 88053B   26158.76721561  .00000289  00000+0  10192-3 0  9999
2 19257  74.0478 306.4218 0019238 105.1338 358.0105 14.38964252989556
COSMOS 1975             
1 19573U 88093A   26158.66655560  .00007446  00000+0  26127-3 0  9995
2 19573  82.5199  27.2782 0010516 205.1565 154.9164 15.29204352 33151
SL-14 R/B               
1 19574U 88093B   26158.69980992  .00000544  00000+0  59530-4 0  9996
2 19574  82.5305 317.5526 0022171  99.7046 270.9830 14.85734846 14383
SL-16 R/B               
1 19650U 88102B   26158.75215044 -.00000041  00000+0  36349-5 0  9995
2 19650  71.0005 321.9920 0016113 238.4014 121.5537 14.16166744939641
INTERCOSMOS 24          
1 20261U 89080A   26158.72390641  .00001024  00000+0  29229-3 0  9993
2 20261  82.6074  45.8017 1188336  83.8441 289.6429 12.59647284678136
SL-14 R/B               
1 20262U 89080C   26158.64275333  .00000509  00000+0  15216-3 0  9993
2 20262  82.5918 115.4389 1229291 339.2403  16.2595 12.50564544671398
DELTA 1 R/B             
1 20323U 89089B   26158.76995318  .00000407  00000+0  10931-3 0  9991
2 20323  97.0641 351.8350 0068419 196.7366 163.1574 14.50725423908793
ARIANE 40 R/B           
1 20443U 90005H   26158.73324608  .00000304  00000+0  11010-3 0  9994
2 20443  98.2963 216.6428 0008882 297.0577  62.9705 14.39922799905765
DELTA 2 R/B(1)          
1 20453U 90008B   26157.11184448  .00100860  00000+0  79153-3 0  9995
2 20453  35.5996 309.6616 0068397   9.6562 350.5477 15.67094261939963
COSMOS 2058             
1 20465U 90010A   26158.47316440  .00003734  00000+0  21593-3 0  9997
2 20465  82.4665 318.9363 0010350  33.4068 326.7814 15.11949071955802
SL-14 R/B               
1 20466U 90010B   26158.79327306  .00000392  00000+0  44536-4 0  9996
2 20466  82.5017 182.7671 0019927   7.6293 352.5221 14.83640514941842
